$$SOE
2459580.500000000, A.D. 2022-Jan-01 00:00:00.0000, 2.027057736833330E+08, -2.275503221636790E+08, 9.672958949594766E+06,
2459587.500000000, A.D. 2022-Jan-08 00:00:00.0000, 2.129379754218696E+08, -2.190169412147826E+08, 7.717503337497130E+06,
2459594.500000000, A.D. 2022-Jan-15 00:00:00.0000, 2.228080821344290E+08, -2.101109748808843E+08, 5.748907866563037E+06,
2459601.500000000, A.D. 2022-Jan-22 00:00:00.0000, 2.323020517241388E+08, -2.008501555035137E+08, 3.770591656891704E+06,
2459608.500000000, A.D. 2022-Jan-29 00:00:00.0000, 2.414069511401717E+08, -1.912527929283201E+08, 1.785945773820385E+06,
2459615.500000000, A.D. 2022-Feb-05 00:00:00.0000, 2.501109739275238E+08, -1.813376901159658E+08, -2.016787747407109E+05,
2459622.500000000, A.D. 2022-Feb-12 00:00:00.0000, 2.584034521030458E+08, -1.711240600459837E+08, -2.188982599417821E+06,
2459629.500000000, A.D. 2022-Feb-19 00:00:00.0000, 2.662748613116367E+08, -1.606314423525890E+08, -4.172728659589767E+06,
2459636.500000000, A.D. 2022-Feb-26 00:00:00.0000, 2.737168183170099E+08, -1.498796211623358E+08, -6.149752042894825E+06,
2459643.500000000, A.D. 2022-Mar-05 00:00:00.0000, 2.807220714254432E+08, -1.388885454241924E+08, -8.116968816218562E+06,
2459650.500000000, A.D. 2022-Mar-12 00:00:00.0000, 2.872844845643405E+08, -1.276782523915833E+08, -1.007138394622623E+07,
2459657.500000000, A.D. 2022-Mar-19 00:00:00.0000, 2.933990156342200E+08, -1.162687947387080E+08, -1.201009828037246E+07,
2459664.500000000, A.D. 2022-Mar-26 00:00:00.0000, 2.990616897378688E+08, -1.046801717427355E+08, -1.393031459103373E+07,
2459671.500000000, A.D. 2022-Apr-02 00:00:00.0000, 3.042695679545970E+08, -9.293226492932272E+07, -1.582934270599177E+07,
2459678.500000000, A.D. 2022-Apr-09 00:00:00.0000, 3.090207125353918E+08, -8.104477843362553E+07, -1.770460377309792E+07,
2459685.500000000, A.D. 2022-Apr-16 00:00:00.0000, 3.133141494774464E+08, -6.903718359490278E+07, -1.955363367034810E+07,
2459692.500000000, A.D. 2022-Apr-23 00:00:00.0000, 3.171498278085694E+08, -5.692866680028816E+07, -2.137408539585390E+07,
2459699.500000000, A.D. 2022-Apr-30 00:00:00.0000, 3.205285742896571E+08, -4.473808286361223E+07, -2.316373049664969E+07,
2459706.500000000, A.D. 2022-May-07 00:00:00.0000, 3.234520471355243E+08, -3.248391588906021E+07, -2.492046003067105E+07,
2459713.500000000, A.D. 2022-May-14 00:00:00.0000, 3.259226906469309E+08, -2.018424449660376E+07, -2.664228499602683E+07,
2459720.500000000, A.D. 2022-May-21 00:00:00.0000, 3.279436891947728E+08, -7.856710519565004E+06, -2.832733603666182E+07,
2459727.500000000, A.D. 2022-May-28 00:00:00.0000, 3.295189205103739E+08, 4.481508035190592E+06, -2.997386251791207E+07,
2459734.500000000, A.D. 2022-Jun-04 00:00:00.0000, 3.306529089484322E+08, 1.681371965110858E+07, -3.158023108247970E+07,
2459741.500000000, A.D. 2022-Jun-11 00:00:00.0000, 3.313507792119780E+08, 2.912373781546703E+07, -3.314492375878055E+07,
2459748.500000000, A.D. 2022-Jun-18 00:00:00.0000, 3.316182108762363E+08, 4.139589563689458E+07, -3.466653568101989E+07,
2459755.500000000, A.D. 2022-Jun-25 00:00:00.0000, 3.314613939923711E+08, 5.361505678895997E+07, -3.614377248013187E+07,
2459762.500000000, A.D. 2022-Jul-02 00:00:00.0000, 3.308869861145648E+08, 6.576662298165574E+07, -3.757544741353244E+07,
2459769.500000000, A.D. 2022-Jul-09 00:00:00.0000, 3.299020713145754E+08, 7.783653841273184E+07, -3.896047830249809E+07,
2459776.500000000, A.D. 2022-Jul-16 00:00:00.0000, 3.285141212705132E+08, 8.981129255908701E+07, -4.029788422835703E+07,
2459783.500000000, A.D. 2022-Jul-23 00:00:00.0000, 3.267309563524522E+08, 1.016779216618158E+08, -4.158678182258238E+07,
2459790.500000000, A.D. 2022-Jul-30 00:00:00.0000, 3.245607068901515E+08, 1.134240058094021E+08, -4.282638147489399E+07,
2459797.500000000, A.D. 2022-Aug-06 00:00:00.0000, 3.220117782815236E+08, 1.250376625065275E+08, -4.401598377361495E+07,
2459804.500000000, A.D. 2022-Aug-13 00:00:00.0000, 3.190928191444272E+08, 1.365075397161278E+08, -4.515497590879343E+07,
2459811.500000000, A.D. 2022-Aug-20 00:00:00.0000, 3.158126909499654E+08, 1.478228080960596E+08, -4.624282796296259E+07,
2459818.500000000, A.D. 2022-Aug-27 00:00:00.0000, 3.121804391966697E+08, 1.589731519154078E+08, -4.727908917987441E+07,
2459825.500000000, A.D. 2022-Sep-03 00:00:00.0000, 3.082052663495214E+08, 1.699487587373260E+08, -4.826338426467068E+07,
2459832.500000000, A.D. 2022-Sep-10 00:00:00.0000, 3.038965065970874E+08, 1.807403080753396E+08, -4.919540974063718E+07,
2459839.500000000, A.D. 2022-Sep-17 00:00:00.0000, 2.992636024088273E+08, 1.913389591899908E+08, -5.007493038161035E+07,
2459846.500000000, A.D. 2022-Sep-24 00:00:00.0000, 2.943160828973419E+08, 2.017363381295385E+08, -5.090177574364654E+07,
2459853.500000000, A.D. 2022-Oct-01 00:00:00.0000, 2.890635441641427E+08, 2.119245241332510E+08, -5.167583683182151E+07,
2459860.500000000, A.D. 2022-Oct-08 00:00:00.0000, 2.835156319704219E+08, 2.218960360446202E+08, -5.239706290706566E+07,
2459867.500000000, A.D. 2022-Oct-15 00:00:00.0000, 2.776820257268102E+08, 2.316438200424047E+08, -5.306545825644912E+07,
2459874.500000000, A.D. 2022-Oct-22 00:00:00.0000, 2.715724215414106E+08, 2.411612371079411E+08, -5.368107886890534E+07,
2459881.500000000, A.D. 2022-Oct-29 00:00:00.0000, 2.651965167534856E+08, 2.504420477294402E+08, -5.424402946323405E+07,
2459888.500000000, A.D. 2022-Nov-05 00:00:00.0000, 2.585639979788343E+08, 2.594803966586174E+08, -5.475446084024949E+07,
2459895.500000000, A.D. 2022-Nov-12 00:00:00.0000, 2.516845306213401E+08, 2.682707990511231E+08, -5.521256727518612E+07,
2459902.500000000, A.D. 2022-Nov-19 00:00:00.0000, 2.445677490522722E+08, 2.768081270959641E+08, -5.561858396174038E+07,
2459909.500000000, A.D. 2022-Nov-26 00:00:00.0000, 2.372232476436786E+08, 2.850875967892895E+08, -5.597278456368577E+07,
2459916.500000000, A.D. 2022-Dec-03 00:00:00.0000, 2.296605727491606E+08, 2.931047548869819E+08, -5.627547888962301E+07,
2459923.500000000, A.D. 2022-Dec-10 00:00:00.0000, 2.218892156084837E+08, 3.008554660940152E+08, -5.652701069277766E+07,
2459930.500000000, A.D. 2022-Dec-17 00:00:00.0000, 2.139186061352858E+08, 3.083359004980406E+08, -5.672775559898813E+07,
2459937.500000000, A.D. 2022-Dec-24 00:00:00.0000, 2.057581076348850E+08, 3.155425212074575E+08, -5.687811917644621E+07,
2459944.500000000, A.D. 2022-Dec-31 00:00:00.0000, 1.974170127504949E+08, 3.224720723223941E+08, -5.697853516882281E+07,
2459951.500000000, A.D. 2023-Jan-07 00:00:00.0000, 1.889045407050629E+08, 3.291215682163291E+08, -5.702946382167298E+07,
2459958.500000000, A.D. 2023-Jan-14 00:00:00.0000, 1.802298338167884E+08, 3.354882846317882E+08, -5.703139007660373E+07,
2459965.500000000, A.D. 2023-Jan-21 00:00:00.0000, 1.714019525861074E+08, 3.415697484235690E+08, -5.698482182766728E+07,
2459972.500000000, A.D. 2023-Jan-28 00:00:00.0000, 1.624298729733946E+08, 3.473637257651432E+08, -5.689028858969253E+07,
2459979.500000000, A.D. 2023-Feb-04 00:00:00.0000, 1.533224856159486E+08, 3.528682118487764E+08, -5.674834030902962E+07,
2459986.500000000, A.D. 2023-Feb-11 00:00:00.0000, 1.440885951446744E+08, 3.580814218838810E+08, -5.655954616327736E+07,
2459993.500000000, A.D. 2023-Feb-18 00:00:00.0000, 1.347369194956232E+08, 3.630017825693222E+08, -5.632449340737760E+07,
2460000.500000000, A.D. 2023-Feb-25 00:00:00.0000, 1.252760894418505E+08, 3.676279238758644E+08, -5.604378629980585E+07,
2460007.500000000, A.D. 2023-Mar-04 00:00:00.0000, 1.157146484139876E+08, 3.719586711532639E+08, -5.571804511306527E+07,
2460014.500000000, A.D. 2023-Mar-11 00:00:00.0000, 1.060610526069488E+08, 3.759930375552474E+08, -5.534790522698094E+07,
2460021.500000000, A.D. 2023-Mar-18 00:00:00.0000, 9.632367138976404E+07, 3.797302167228102E+08, -5.493401630836603E+07,
2460028.500000000, A.D. 2023-Mar-25 00:00:00.0000, 8.651078819146602E+07, 3.831695756676752E+08, -5.447704159441264E+07,
2460035.500000000, A.D. 2023-Apr-01 00:00:00.0000, 7.663060225738524E+07, 3.863106482410900E+08, -5.397765728224626E+07,
2460042.500000000, A.D. 2023-Apr-08 00:00:00.0000, 6.669123063419884E+07, 3.891531304084569E+08, -5.343655186551614E+07,
2460049.500000000, A.D. 2023-Apr-15 00:00:00.0000, 5.670070802520557E+07, 3.916968762163978E+08, -5.285442529151459E+07,
2460056.500000000, A.D. 2023-Apr-22 00:00:00.0000, 4.666698630236958E+07, 3.939418913919762E+08, -5.223198835095398E+07,
2460063.500000000, A.D. 2023-Apr-29 00:00:00.0000, 3.659793639172640E+07, 3.958883268245226E+08, -5.156996236612917E+07,
2460070.500000000, A.D. 2023-May-06 00:00:00.0000, 2.650135075862109E+07, 3.975364737037628E+08, -5.086907886882319E+07,
2460077.500000000, A.D. 2023-May-13 00:00:00.0000, 1.638494550070124E+07, 3.988867594088359E+08, -5.013007924818572E+07,
2460084.500000000, A.D. 2023-May-20 00:00:00.0000, 6.256362266837412E+06, 3.999397436466187E+08, -4.935371442727655E+07,
2460091.500000000, A.D. 2023-May-27 00:00:00.0000, -3.876829819401233E+06, 4.006961148007383E+08, -4.854074458602864E+07,
2460098.500000000, A.D. 2023-Jun-03 00:00:00.0000, -1.400713218778022E+07, 4.011566865086904E+08, -4.769193893170018E+07,
2460105.500000000, A.D. 2023-Jun-10 00:00:00.0000, -2.412711478975161E+07, 4.013223944451147E+08, -4.680807551822180E+07,
2460112.500000000, A.D. 2023-Jun-17 00:00:00.0000, -3.422941392979654E+07, 4.011942932432500E+08, -4.588994112573847E+07,
2460119.500000000, A.D. 2023-Jun-24 00:00:00.0000, -4.430672965090908E+07, 4.007735536027455E+08, -4.493833122348019E+07,
2460126.500000000, A.D. 2023-Jul-01 00:00:00.0000, -5.435182243185563E+07, 4.000614604058495E+08, -4.395404997016980E+07,
2460133.500000000, A.D. 2023-Jul-08 00:00:00.0000, -6.435751087900358E+07, 3.990594126595716E+08, -4.293791003040844E+07,
2460140.500000000, A.D. 2023-Jul-15 00:00:00.0000, -7.431667169561675E+07, 3.977689224257590E+08, -4.189073231933646E+07,
2460147.500000000, A.D. 2023-Jul-22 00:00:00.0000, -8.422223841743679E+07, 3.961916116945736E+08, -4.081334608043219E+07,
$$EOE